CONNECTA IOT-13         
1 67400U 26004AP  26033.49582895  .00008024  00000+0  39321-3 0  9997
2 67400  97.4540  34.5476 0011019  95.1879 265.0613 15.18354954  3324
CONNECTA IOT-14         
1 67401U 26004AQ  26033.49431382  .00010298  00000+0  50189-3 0  9993
2 67401  97.4471  34.5342 0011584  90.6940 269.5622 15.18464909  3327
CONNECTA IOT-15         
1 67402U 26004AR  26033.45114071  .00005054  00000+0  26037-3 0  9992
2 67402  97.4544  34.4563 0004956  78.3762 281.8027 15.16825262  3308
SHIJIAN-29B (SJ-29B)    
1 67403U 25315C   26033.50701898 -.00000078  00000+0  00000+0 0  9992
2 67403   3.0569  98.6370 0001823 309.3083 340.3690  1.00271493   336
STARLINK-36484          
1 67404U 26005A   26033.50002314 -.02058609  00000+0 -41056-1 0  9991
2 67404  43.0000  80.0972 0001297 284.2954 151.7728 15.49442848  4485
STARLINK-36452          
1 67405U 26005B   26033.50002314 -.00036766  00000+0 -62390-3 0  9996
2 67405  42.9999  80.0913 0001078 276.5387 161.9656 15.50576108  4489
STARLINK-36409          
1 67406U 26005C   26033.50002314 -.00101162  00000+0 -17362-2 0  9998
2 67406  43.0000  80.0867 0001780 305.9453 134.3784 15.50653002  4535
STARLINK-36510          
1 67407U 26005D   26033.50002314 -.00120013  00000+0 -20653-2 0  9992
2 67407  43.0000  80.0820 0001788 302.9869 139.2601 15.50660004  4533
STARLINK-36509          
1 67408U 26005E   26033.50002314 -.00034036  00000+0 -57695-3 0  9999
2 67408  43.0000  80.0763 0001050 277.0630 167.1913 15.50574962  4533
STARLINK-36507          
1 67409U 26005F   26033.50002314  .00037740  00000+0  64589-3 0  9993
2 67409  43.0002  80.0720 0001948 306.4280 139.6431 15.50583741  4537
STARLINK-36508          
1 67410U 26005G   26033.50002314  .00055622  00000+0  94807-3 0  9990
2 67410  43.0003  80.0673 0001390 280.7198 167.3653 15.50553196  4535
STARLINK-36503          
1 67411U 26005H   26033.50002314 -.00032010  00000+0 -54212-3 0  9995
2 67411  43.0000  80.0619 0001111 279.4524 170.5503 15.50575533  4272
