CCSDS_OMM_VERS = 2.0
CREATION_DATE  = 
ORIGINATOR     = 

OBJECT_NAME    = CONNECTA IOT-13
OBJECT_ID      = 2026-004AP
CENTER_NAME    = EARTH
REF_FRAME      = TEME
TIME_SYSTEM    = UTC
MEAN_ELEMENT_THEORY = SGP/SGP4

EPOCH          = 2026-02-02T11:53:59.621280
MEAN_MOTION    = 15.18354954
ECCENTRICITY   = .0011019
INCLINATION    = 97.4540
RA_OF_ASC_NODE = 34.5476
ARG_OF_PERICENTER = 95.1879
MEAN_ANOMALY   = 265.0613

EPHEMERIS_TYPE = 0
CLASSIFICATION_TYPE = U
NORAD_CAT_ID   = 67400
ELEMENT_SET_NO = 999
REV_AT_EPOCH   = 332
BSTAR          = .39321E-3
MEAN_MOTION_DOT = .8024E-4
MEAN_MOTION_DDOT = 0

CCSDS_OMM_VERS = 2.0
CREATION_DATE  = 
ORIGINATOR     = 

OBJECT_NAME    = CONNECTA IOT-14
OBJECT_ID      = 2026-004AQ
CENTER_NAME    = EARTH
REF_FRAME      = TEME
TIME_SYSTEM    = UTC
MEAN_ELEMENT_THEORY = SGP/SGP4

EPOCH          = 2026-02-02T11:51:48.714048
MEAN_MOTION    = 15.18464909
ECCENTRICITY   = .0011584
INCLINATION    = 97.4471
RA_OF_ASC_NODE = 34.5342
ARG_OF_PERICENTER = 90.6940
MEAN_ANOMALY   = 269.5622

EPHEMERIS_TYPE = 0
CLASSIFICATION_TYPE = U
NORAD_CAT_ID   = 67401
ELEMENT_SET_NO = 999
REV_AT_EPOCH   = 332
BSTAR          = .50189E-3
MEAN_MOTION_DOT = .10298E-3
MEAN_MOTION_DDOT = 0

CCSDS_OMM_VERS = 2.0
CREATION_DATE  = 
ORIGINATOR     = 

OBJECT_NAME    = CONNECTA IOT-15
OBJECT_ID      = 2026-004AR
CENTER_NAME    = EARTH
REF_FRAME      = TEME
TIME_SYSTEM    = UTC
MEAN_ELEMENT_THEORY = SGP/SGP4

EPOCH          = 2026-02-02T10:49:38.557344
MEAN_MOTION    = 15.16825262
ECCENTRICITY   = .0004956
INCLINATION    = 97.4544
RA_OF_ASC_NODE = 34.4563
ARG_OF_PERICENTER = 78.3762
MEAN_ANOMALY   = 281.8027

EPHEMERIS_TYPE = 0
CLASSIFICATION_TYPE = U
NORAD_CAT_ID   = 67402
ELEMENT_SET_NO = 999
REV_AT_EPOCH   = 330
BSTAR          = .26037E-3
MEAN_MOTION_DOT = .5054E-4
MEAN_MOTION_DDOT = 0

CCSDS_OMM_VERS = 2.0
CREATION_DATE  = 
ORIGINATOR     = 

OBJECT_NAME    = SHIJIAN-29B (SJ-29B)
OBJECT_ID      = 2025-315C
CENTER_NAME    = EARTH
REF_FRAME      = TEME
TIME_SYSTEM    = UTC
MEAN_ELEMENT_THEORY = SGP/SGP4

EPOCH          = 2026-02-02T12:10:06.439872
MEAN_MOTION    = 1.00271493
ECCENTRICITY   = .0001823
INCLINATION    = 3.0569
RA_OF_ASC_NODE = 98.6370
ARG_OF_PERICENTER = 309.3083
MEAN_ANOMALY   = 340.3690

EPHEMERIS_TYPE = 0
CLASSIFICATION_TYPE = U
NORAD_CAT_ID   = 67403
ELEMENT_SET_NO = 999
REV_AT_EPOCH   = 33
BSTAR          = 0
MEAN_MOTION_DOT = -.78E-6
MEAN_MOTION_DDOT = 0

CCSDS_OMM_VERS = 2.0
CREATION_DATE  = 
ORIGINATOR     = 

OBJECT_NAME    = STARLINK-36484
OBJECT_ID      = 2026-005A
CENTER_NAME    = EARTH
REF_FRAME      = TEME
TIME_SYSTEM    = UTC
MEAN_ELEMENT_THEORY = SGP/SGP4

EPOCH          = 2026-02-02T12:00:01.999296
MEAN_MOTION    = 15.49442848
ECCENTRICITY   = .0001297
INCLINATION    = 43.0000
RA_OF_ASC_NODE = 80.0972
ARG_OF_PERICENTER = 284.2954
MEAN_ANOMALY   = 151.7728

EPHEMERIS_TYPE = 0
CLASSIFICATION_TYPE = U
NORAD_CAT_ID   = 67404
ELEMENT_SET_NO = 999
REV_AT_EPOCH   = 448
BSTAR          = -.41056E-1
MEAN_MOTION_DOT = -.2058609E-1
MEAN_MOTION_DDOT = 0

CCSDS_OMM_VERS = 2.0
CREATION_DATE  = 
ORIGINATOR     = 

OBJECT_NAME    = STARLINK-36452
OBJECT_ID      = 2026-005B
CENTER_NAME    = EARTH
REF_FRAME      = TEME
TIME_SYSTEM    = UTC
MEAN_ELEMENT_THEORY = SGP/SGP4

EPOCH          = 2026-02-02T12:00:01.999296
MEAN_MOTION    = 15.50576108
ECCENTRICITY   = .0001078
INCLINATION    = 42.9999
RA_OF_ASC_NODE = 80.0913
ARG_OF_PERICENTER = 276.5387
MEAN_ANOMALY   = 161.9656

EPHEMERIS_TYPE = 0
CLASSIFICATION_TYPE = U
NORAD_CAT_ID   = 67405
ELEMENT_SET_NO = 999
REV_AT_EPOCH   = 448
BSTAR          = -.6239E-3
MEAN_MOTION_DOT = -.36766E-3
MEAN_MOTION_DDOT = 0

CCSDS_OMM_VERS = 2.0
CREATION_DATE  = 
ORIGINATOR     = 

OBJECT_NAME    = STARLINK-36409
OBJECT_ID      = 2026-005C
CENTER_NAME    = EARTH
REF_FRAME      = TEME
TIME_SYSTEM    = UTC
MEAN_ELEMENT_THEORY = SGP/SGP4

EPOCH          = 2026-02-02T12:00:01.999296
MEAN_MOTION    = 15.50653002
ECCENTRICITY   = .000178
INCLINATION    = 43.0000
RA_OF_ASC_NODE = 80.0867
ARG_OF_PERICENTER = 305.9453
MEAN_ANOMALY   = 134.3784

EPHEMERIS_TYPE = 0
CLASSIFICATION_TYPE = U
NORAD_CAT_ID   = 67406
ELEMENT_SET_NO = 999
REV_AT_EPOCH   = 453
BSTAR          = -.17362E-2
MEAN_MOTION_DOT = -.101162E-2
MEAN_MOTION_DDOT = 0

CCSDS_OMM_VERS = 2.0
CREATION_DATE  = 
ORIGINATOR     = 

OBJECT_NAME    = STARLINK-36510
OBJECT_ID      = 2026-005D
CENTER_NAME    = EARTH
REF_FRAME      = TEME
TIME_SYSTEM    = UTC
MEAN_ELEMENT_THEORY = SGP/SGP4

EPOCH          = 2026-02-02T12:00:01.999296
MEAN_MOTION    = 15.50660004
ECCENTRICITY   = .0001788
INCLINATION    = 43.0000
RA_OF_ASC_NODE = 80.0820
ARG_OF_PERICENTER = 302.9869
MEAN_ANOMALY   = 139.2601

EPHEMERIS_TYPE = 0
CLASSIFICATION_TYPE = U
NORAD_CAT_ID   = 67407
ELEMENT_SET_NO = 999
REV_AT_EPOCH   = 453
BSTAR          = -.20653E-2
MEAN_MOTION_DOT = -.120013E-2
MEAN_MOTION_DDOT = 0

CCSDS_OMM_VERS = 2.0
CREATION_DATE  = 
ORIGINATOR     = 

OBJECT_NAME    = STARLINK-36509
OBJECT_ID      = 2026-005E
CENTER_NAME    = EARTH
REF_FRAME      = TEME
TIME_SYSTEM    = UTC
MEAN_ELEMENT_THEORY = SGP/SGP4

EPOCH          = 2026-02-02T12:00:01.999296
MEAN_MOTION    = 15.50574962
ECCENTRICITY   = .000105
INCLINATION    = 43.0000
RA_OF_ASC_NODE = 80.0763
ARG_OF_PERICENTER = 277.0630
MEAN_ANOMALY   = 167.1913

EPHEMERIS_TYPE = 0
CLASSIFICATION_TYPE = U
NORAD_CAT_ID   = 67408
ELEMENT_SET_NO = 999
REV_AT_EPOCH   = 453
BSTAR          = -.57695E-3
MEAN_MOTION_DOT = -.34036E-3
MEAN_MOTION_DDOT = 0

CCSDS_OMM_VERS = 2.0
CREATION_DATE  = 
ORIGINATOR     = 

OBJECT_NAME    = STARLINK-36507
OBJECT_ID      = 2026-005F
CENTER_NAME    = EARTH
REF_FRAME      = TEME
TIME_SYSTEM    = UTC
MEAN_ELEMENT_THEORY = SGP/SGP4

EPOCH          = 2026-02-02T12:00:01.999296
MEAN_MOTION    = 15.50583741
ECCENTRICITY   = .0001948
INCLINATION    = 43.0002
RA_OF_ASC_NODE = 80.0720
ARG_OF_PERICENTER = 306.4280
MEAN_ANOMALY   = 139.6431

EPHEMERIS_TYPE = 0
CLASSIFICATION_TYPE = U
NORAD_CAT_ID   = 67409
ELEMENT_SET_NO = 999
REV_AT_EPOCH   = 453
BSTAR          = .64589E-3
MEAN_MOTION_DOT = .3774E-3
MEAN_MOTION_DDOT = 0

CCSDS_OMM_VERS = 2.0
CREATION_DATE  = 
ORIGINATOR     = 

OBJECT_NAME    = STARLINK-36508
OBJECT_ID      = 2026-005G
CENTER_NAME    = EARTH
REF_FRAME      = TEME
TIME_SYSTEM    = UTC
MEAN_ELEMENT_THEORY = SGP/SGP4

EPOCH          = 2026-02-02T12:00:01.999296
MEAN_MOTION    = 15.50553196
ECCENTRICITY   = .000139
INCLINATION    = 43.0003
RA_OF_ASC_NODE = 80.0673
ARG_OF_PERICENTER = 280.7198
MEAN_ANOMALY   = 167.3653

EPHEMERIS_TYPE = 0
CLASSIFICATION_TYPE = U
NORAD_CAT_ID   = 67410
ELEMENT_SET_NO = 999
REV_AT_EPOCH   = 453
BSTAR          = .94807E-3
MEAN_MOTION_DOT = .55622E-3
MEAN_MOTION_DDOT = 0

CCSDS_OMM_VERS = 2.0
CREATION_DATE  = 
ORIGINATOR     = 

OBJECT_NAME    = STARLINK-36503
OBJECT_ID      = 2026-005H
CENTER_NAME    = EARTH
REF_FRAME      = TEME
TIME_SYSTEM    = UTC
MEAN_ELEMENT_THEORY = SGP/SGP4

EPOCH          = 2026-02-02T12:00:01.999296
MEAN_MOTION    = 15.50575533
ECCENTRICITY   = .0001111
INCLINATION    = 43.0000
RA_OF_ASC_NODE = 80.0619
ARG_OF_PERICENTER = 279.4524
MEAN_ANOMALY   = 170.5503

EPHEMERIS_TYPE = 0
CLASSIFICATION_TYPE = U
NORAD_CAT_ID   = 67411
ELEMENT_SET_NO = 999
REV_AT_EPOCH   = 427
BSTAR          = -.54212E-3
MEAN_MOTION_DOT = -.3201E-3
MEAN_MOTION_DDOT = 0

